INMARSAT GX5            
1 44801U 19080B   26167.62141545  .00000073  00000+0  00000+0 0  9993
2 44801   0.0347 352.1938 0002242 109.4648  37.9718  1.00272711  6783
JCSAT-18 (KACIFIC 1)    
1 44868U 19091A   26166.78781051 -.00000200  00000+0  00000+0 0  9999
2 44868   0.0156 257.9159 0000448   5.6966  74.0536  1.00269633 23998
ELEKTRO-L 3             
1 44903U 19095A   26167.62860154 -.00000098  00000+0  00000+0 0  9994
2 44903   0.2555  81.4895 0000937 351.7931 133.8636  1.00271377 23702
SHIJIAN-20 (SJ-20)      
1 44910U 19097A   26166.90954737  .00000132  00000+0  00000+0 0  9993
2 44910   4.9159  75.0780 0013912  55.1151 146.3413  1.00277883 23686
TJS-5                   
1 44978U 20002A   26167.49226551 -.00000343  00000+0  00000+0 0  9991
2 44978   0.0138 310.7959 0007321  95.7077 142.9669  1.00268900 23703
GSAT-30                 
1 45026U 20005A   26167.48742797 -.00000166  00000+0  00000+0 0  9996
2 45026   0.0719  96.4430 0003346 348.4382  78.3351  1.00271074 23509
EUTELSAT KONNECT        
1 45027U 20005B   26166.03030797  .00000055  00000+0  00000+0 0  9993
2 45027   0.0725  97.8075 0001524 122.8326  60.8276  1.00271655 24312
JCSAT-17                
1 45245U 20013A   26167.28408228 -.00000317  00000+0  00000+0 0  9992
2 45245   5.3923 356.8667 0002334  85.4767  60.4978  1.00270235 23227
GEO-KOMPSAT-2B          
1 45246U 20013B   26167.59703635 -.00000346  00000+0  00000+0 0  9999
2 45246   0.0061 295.1507 0000747 333.8699 339.0440  1.00270935 23272
BEIDOU-3 G2             
1 45344U 20017A   26167.62946821 -.00000144  00000+0  00000+0 0  9998
2 45344   2.8629  47.3270 0002022  32.4797 131.7766  1.00271982 23253
AEHF-6 (USA 298)        
1 45465U 20022B   26167.56944270 -.00000298  00000+0  00000+0 0  9997
2 45465   2.5493 301.1496 0043174  17.0225 289.4414  1.00271482 23001
BEIDOU-3 G3             
1 45807U 20040A   26167.67741221 -.00000357  00000+0  00000+0 0  9996
2 45807   2.4456  67.4401 0002394 335.5236 216.3546  1.00266661 22069
APSTAR-6D               
1 45863U 20045A   26167.21227648 -.00000318  00000+0  00000+0 0  9992
2 45863   0.0537  97.5409 0002150 352.5328  24.8640  1.00270601 21850
KOREASAT 116            
1 45920U 20048A   26167.59654200 -.00000364  00000+0  00000+0 0  9999
2 45920   0.0247 293.2414 0000751 185.4357 117.1435  1.00269366 21633
EXPRESS 103             
1 45985U 20053A   26167.64788613 -.00000283  00000+0  00000+0 0  9998
2 45985   0.0189 281.3323 0000586  24.3116 289.0056  1.00272227 21645
EXPRESS 80              
1 45986U 20053B   26167.04354999 -.00000135  00000+0  00000+0 0  9995
2 45986   0.0169 307.6183 0001653 225.5307 186.8488  1.00271830 21623
BSAT-4B                 
1 46112U 20056A   26164.49851758  .00000000  00000+0  00000+0 0  9991
2 46112   0.0192  98.5475 0003746  17.2668  75.2961  1.00268721 21354
MEV-2                   
1 46113U 20056B   26166.68656492 -.00000009  00000+0  00000+0 0  9993
2 46113   0.0116 317.0110 0000298 255.8494 297.2601  1.00272857 80539
GALAXY 30 (G-30)        
1 46114U 20056C   26167.51750836  .00000035  00000+0  00000+0 0  9992
2 46114   0.0157  22.2185 0002092  63.4766 240.3870  1.00271086 21288
GAOFEN-13 01            
1 46610U 20071A   26167.65883256 -.00000365  00000+0  00000+0 0  9995
2 46610   0.5206  84.8558 0041386 123.7256  51.7408  1.00270761 20919
TIANTONG-1 2            
1 46916U 20082A   26167.66164586 -.00000357  00000+0  00000+0 0  9996
2 46916   0.7908 327.4589 0000951 103.4810 197.1128  1.00269522 20640
LUCAS (JDRS-1)          
1 47202U 20089A   26167.48898799 -.00000237  00000+0  00000+0 0  9999
2 47202   0.0601 273.2610 0002224 148.4169 109.9197  1.00270089 20418
SXM-7                   
1 47240U 20096A   26165.95705219 -.00000200  00000+0  00000+0 0  9993
2 47240   0.0312  98.3690 0003650  27.4675  36.8000  1.00271395  7423
CMS-01                  
1 47256U 20099A   26167.48742797 -.00000166  00000+0  00000+0 0  9996
2 47256   0.0970  94.8323 0003773 181.0930 247.2945  1.00270704 20199
TURKSAT 5A              
1 47306U 21001A   26167.54841944  .00000152  00000+0  00000+0 0  9991
2 47306   0.0195  58.1143 0000131 202.6955 232.3663  1.00270745 19969
TIANTONG-1 3            
1 47321U 21003A   26167.62972821 -.00000156  00000+0  00000+0 0  9993
2 47321   1.7570 339.2758 0003010 111.9684 121.8914  1.00270438 19955
TJS-6                   
1 47613U 21010A   26167.57761391  .00000041  00000+0  00000+0 0  9999
2 47613   0.2529 264.3087 0002923 225.0497 161.9164  1.00269153 19809
SBIRS GEO-5 (USA 315)   
1 48618U 21042A   26167.64719375 -.00000269  00000+0  00000+0 0  9996
2 48618   5.1041 329.1288 0001274 121.3003 141.2831  1.00270683 18766
FENGYUN 4B              
1 48808U 21047A   26167.65302054 -.00000333  00000+0  00000+0 0  9997
2 48808   0.1522  77.4539 0005934 275.2482 251.9203  1.00276830 18565
SXM-8                   
1 48838U 21049A   26166.31344440 -.00000202  00000+0  00000+0 0  9994
2 48838   0.0179  12.6016 0004989  18.1510 260.5396  1.00271311 18569
TIANLIAN 1-05           
1 49011U 21063A   26167.67730561  .00000105  00000+0  00000+0 0  9998
2 49011   1.5930  80.7041 0000576 317.4668 127.4024  1.00270414 18073
STAR ONE D2             
1 49055U 21069A   26166.17384541  .00000000  00000+0  00000+0 0  9993
2 49055   0.0162 337.8384 0002057 134.2817 143.8251  1.00270847 17922
