OBJECT_NAME,OBJECT_ID,EPOCH,MEAN_MOTION,ECCENTRICITY,INCLINATION,RA_OF_ASC_NODE,ARG_OF_PERICENTER,MEAN_ANOMALY,EPHEMERIS_TYPE,CLASSIFICATION_TYPE,NORAD_CAT_ID,ELEMENT_SET_NO,REV_AT_EPOCH,BSTAR,MEAN_MOTION_DOT,MEAN_MOTION_DDOT
INMARSAT GX5,2019-080B,2026-06-16T14:54:50.294880,1.00272711,.00022429,0.0347,352.1938,109.4648,37.9718,0,U,44801,999,678,0,.73E-6,0
JCSAT-18 (KACIFIC 1),2019-091A,2026-06-15T18:54:26.828064,1.00269633,.00004484,0.0156,257.9159,5.6966,74.0536,0,U,44868,999,2399,0,-.2E-5,0
ELEKTRO-L 3,2019-095A,2026-06-16T15:05:11.173056,1.00271377,.00009373,0.2555,81.4895,351.7931,133.8636,0,U,44903,999,2370,0,-.98E-6,0
SHIJIAN-20 (SJ-20),2019-097A,2026-06-15T21:49:44.892768,1.00277883,.0013912,4.9159,75.0780,55.1151,146.3413,0,U,44910,999,2368,0,.132E-5,0
TJS-5,2020-002A,2026-06-16T11:48:51.740064,1.00268900,.0007321,0.0138,310.7959,95.7077,142.9669,0,U,44978,999,2370,0,-.343E-5,0
GSAT-30,2020-005A,2026-06-16T11:41:53.776608,1.00271074,.00033466,0.0719,96.4430,348.4382,78.3351,0,U,45026,999,2350,0,-.166E-5,0
EUTELSAT KONNECT,2020-005B,2026-06-15T00:43:38.608608,1.00271655,.00015245,0.0725,97.8075,122.8326,60.8276,0,U,45027,999,2431,0,.55E-6,0
JCSAT-17,2020-013A,2026-06-16T06:49:04.708992,1.00270235,.00023348,5.3923,356.8667,85.4767,60.4978,0,U,45245,999,2322,0,-.317E-5,0
GEO-KOMPSAT-2B,2020-013B,2026-06-16T14:19:43.940640,1.00270935,.00007478,0.0061,295.1507,333.8699,339.0440,0,U,45246,999,2327,0,-.346E-5,0
BEIDOU-3 G2,2020-017A,2026-06-16T15:06:26.053344,1.00271982,.00020228,2.8629,47.3270,32.4797,131.7766,0,U,45344,999,2325,0,-.144E-5,0
AEHF-6 (USA 298),2020-022B,2026-06-16T13:39:59.849280,1.00271482,.00431746,2.5493,301.1496,17.0225,289.4414,0,U,45465,999,2300,0,-.298E-5,0
BEIDOU-3 G3,2020-040A,2026-06-16T16:15:28.414944,1.00266661,.00023944,2.4456,67.4401,335.5236,216.3546,0,U,45807,999,2206,0,-.357E-5,0
APSTAR-6D,2020-045A,2026-06-16T05:05:40.687872,1.00270601,.000215,0.0537,97.5409,352.5328,24.8640,0,U,45863,999,2185,0,-.318E-5,0
KOREASAT 116,2020-048A,2026-06-16T14:19:01.228800,1.00269366,.00007514,0.0247,293.2414,185.4357,117.1435,0,U,45920,999,2163,0,-.364E-5,0
EXPRESS 103,2020-053A,2026-06-16T15:32:57.361632,1.00272227,.00005861,0.0189,281.3323,24.3116,289.0056,0,U,45985,999,2164,0,-.283E-5,0
EXPRESS 80,2020-053B,2026-06-16T01:02:42.719136,1.00271830,.00016538,0.0169,307.6183,225.5307,186.8488,0,U,45986,999,2162,0,-.135E-5,0
BSAT-4B,2020-056A,2026-06-13T11:57:51.918912,1.00268721,.00037461,0.0192,98.5475,17.2668,75.2961,0,U,46112,999,2135,0,0,0
MEV-2,2020-056B,2026-06-15T16:28:39.209088,1.00272857,.00002983,0.0116,317.0110,255.8494,297.2601,0,U,46113,999,8053,0,-.9E-7,0
GALAXY 30 (G-30),2020-056C,2026-06-16T12:25:12.722304,1.00271086,.00020929,0.0157,22.2185,63.4766,240.3870,0,U,46114,999,2128,0,.35E-6,0
GAOFEN-13 01,2020-071A,2026-06-16T15:48:43.133184,1.00270761,.00413861,0.5206,84.8558,123.7256,51.7408,0,U,46610,999,2091,0,-.365E-5,0
TIANTONG-1 2,2020-082A,2026-06-16T15:52:46.202304,1.00269522,.00009513,0.7908,327.4589,103.4810,197.1128,0,U,46916,999,2064,0,-.357E-5,0
LUCAS (JDRS-1),2020-089A,2026-06-16T11:44:08.562336,1.00270089,.00022247,0.0601,273.2610,148.4169,109.9197,0,U,47202,999,2041,0,-.237E-5,0
SXM-7,2020-096A,2026-06-14T22:58:09.309216,1.00271395,.00036508,0.0312,98.3690,27.4675,36.8000,0,U,47240,999,742,0,-.2E-5,0
CMS-01,2020-099A,2026-06-16T11:41:53.776608,1.00270704,.00037735,0.0970,94.8323,181.0930,247.2945,0,U,47256,999,2019,0,-.166E-5,0
TURKSAT 5A,2021-001A,2026-06-16T13:09:43.439616,1.00270745,.00001313,0.0195,58.1143,202.6955,232.3663,0,U,47306,999,1996,0,.152E-5,0
TIANTONG-1 3,2021-003A,2026-06-16T15:06:48.517344,1.00270438,.00030102,1.7570,339.2758,111.9684,121.8914,0,U,47321,999,1995,0,-.156E-5,0
TJS-6,2021-010A,2026-06-16T13:51:45.841824,1.00269153,.00029234,0.2529,264.3087,225.0497,161.9164,0,U,47613,999,1980,0,.41E-6,0
SBIRS GEO-5 (USA 315),2021-042A,2026-06-16T15:31:57.540000,1.00270683,.00012741,5.1041,329.1288,121.3003,141.2831,0,U,48618,999,1876,0,-.269E-5,0
FENGYUN 4B,2021-047A,2026-06-16T15:40:20.974656,1.00276830,.00059343,0.1522,77.4539,275.2482,251.9203,0,U,48808,999,1856,0,-.333E-5,0
SXM-8,2021-049A,2026-06-15T07:31:21.596160,1.00271311,.00049899,0.0179,12.6016,18.1510,260.5396,0,U,48838,999,1856,0,-.202E-5,0
TIANLIAN 1-05,2021-063A,2026-06-16T16:15:19.204704,1.00270414,.0000576,1.5930,80.7041,317.4668,127.4024,0,U,49011,999,1807,0,.105E-5,0
STAR ONE D2,2021-069A,2026-06-15T04:10:20.243424,1.00270847,.00020579,0.0162,337.8384,134.2817,143.8251,0,U,49055,999,1792,0,0,0
